STARLINK-36144          
1 67829U 26033J   26076.25002315 -.01865068  00000+0 -30927-1 0  9992
2 67829  42.9998 225.9000 0001600 265.0867  53.8270 15.54737595  5870
STARLINK-36611          
1 67830U 26033K   26076.25002315 -.01882273  00000+0 -28807-1 0  9995
2 67830  42.9992 225.7681 0001689 270.3125 101.6085 15.56911074  5876
STARLINK-36661          
1 67831U 26033L   26076.25002315 -.00642217  00000+0 -11700-1 0  9991
2 67831  43.0000 226.0852 0001581 284.5591 319.3993 15.50976611  5876
STARLINK-36662          
1 67832U 26033M   26076.25002315 -.01232229  00000+0 -73912-2 0  9995
2 67832  42.9996 224.0625 0001618 272.6652  58.8533 15.79597529  5875
STARLINK-36659          
1 67833U 26033N   26076.25002315 -.01895525  00000+0 -23514-1 0  9992
2 67833  42.9998 225.4866 0001597 276.1452 209.4731 15.62377284  5873
STARLINK-36655          
1 67834U 26033P   26076.25002315 -.01877271  00000+0 -28710-1 0  9994
2 67834  42.9999 225.7359 0001832 269.5957 115.4536 15.56919340  5870
STARLINK-36657          
1 67835U 26033Q   26076.25002315 -.01891353  00000+0 -24727-1 0  9996
2 67835  42.9994 225.5228 0001727 275.1323 195.5289 15.61031080  5878
STARLINK-36650          
1 67836U 26033R   26076.25002315 -.02087880  00000+0 -37074-1 0  9999
2 67836  43.0001 225.9664 0001567 264.1783  27.5886 15.52707084  5879
STARLINK-36649          
1 67837U 26033S   26076.25002315 -.01883340  00000+0 -29276-1 0  9999
2 67837  42.9992 225.7257 0001656 268.7515 119.8452 15.56500003  5875
STARLINK-36654          
1 67838U 26033T   26076.25002315 -.01870366  00000+0 -31322-1 0  9999
2 67838  42.9998 225.8287 0001722 265.9879  80.9626 15.54480447  5870
STARLINK-36652          
1 67839U 26033U   26076.25002315 -.02143653  00000+0 -37825-1 0  9997
2 67839  43.0002 225.9221 0001979 270.8028  38.6998 15.52966795  5878
STARLINK-36651          
1 67840U 26033V   26076.25002315 -.01871244  00000+0 -31546-1 0  9996
2 67840  42.9995 225.8175 0001794 264.2772  86.9791 15.54302172  5876
STARLINK-36656          
1 67841U 26033W   26076.25002315 -.01879791  00000+0 -30433-1 0  9996
2 67841  42.9994 225.7434 0001666 265.1520 116.0858 15.55408581  5873
STARLINK-36653          
1 67842U 26033X   26076.25002315 -.01872884  00000+0 -31470-1 0  9995
2 67842  42.9996 225.7908 0001604 268.3425  93.6746 15.54395845  5876
STARLINK-36589          
1 67843U 26033Y   26076.25002315 -.01876038  00000+0 -30324-1 0  9998
2 67843  42.9992 225.7196 0001744 263.9079 126.7879 15.55443145  5876
STARLINK-36598          
1 67844U 26033Z   26076.25002315 -.02450867  00000+0 -43781-1 0  9999
2 67844  42.9999 225.9026 0001711 270.2749  46.5683 15.52533918  5874
