[{"OBJECT_NAME":"STARLINK-36144","OBJECT_ID":"2026-033J","EPOCH":"2026-03-17T06:00:02.000160","MEAN_MOTION":15.54737595,"ECCENTRICITY":0.00016005,"INCLINATION":42.9998,"RA_OF_ASC_NODE":225.9,"ARG_OF_PERICENTER":265.0867,"MEAN_ANOMALY":53.827,"EPHEMERIS_TYPE":0,"CLASSIFICATION_TYPE":"U","NORAD_CAT_ID":67829,"ELEMENT_SET_NO":999,"REV_AT_EPOCH":587,"BSTAR":-0.030927087,"MEAN_MOTION_DOT":-0.01865068,"MEAN_MOTION_DDOT":0},{"OBJECT_NAME":"STARLINK-36611","OBJECT_ID":"2026-033K","EPOCH":"2026-03-17T06:00:02.000160","MEAN_MOTION":15.56911074,"ECCENTRICITY":0.00016891,"INCLINATION":42.9992,"RA_OF_ASC_NODE":225.7681,"ARG_OF_PERICENTER":270.3125,"MEAN_ANOMALY":101.6085,"EPHEMERIS_TYPE":0,"CLASSIFICATION_TYPE":"U","NORAD_CAT_ID":67830,"ELEMENT_SET_NO":999,"REV_AT_EPOCH":587,"BSTAR":-0.02880684,"MEAN_MOTION_DOT":-0.01882273,"MEAN_MOTION_DDOT":0},{"OBJECT_NAME":"STARLINK-36661","OBJECT_ID":"2026-033L","EPOCH":"2026-03-17T06:00:02.000160","MEAN_MOTION":15.50976611,"ECCENTRICITY":0.00015812,"INCLINATION":43,"RA_OF_ASC_NODE":226.0852,"ARG_OF_PERICENTER":284.5591,"MEAN_ANOMALY":319.3993,"EPHEMERIS_TYPE":0,"CLASSIFICATION_TYPE":"U","NORAD_CAT_ID":67831,"ELEMENT_SET_NO":999,"REV_AT_EPOCH":587,"BSTAR":-0.011699683,"MEAN_MOTION_DOT":-0.00642217,"MEAN_MOTION_DDOT":0},{"OBJECT_NAME":"STARLINK-36662","OBJECT_ID":"2026-033M","EPOCH":"2026-03-17T06:00:02.000160","MEAN_MOTION":15.79597529,"ECCENTRICITY":0.00016183,"INCLINATION":42.9996,"RA_OF_ASC_NODE":224.0625,"ARG_OF_PERICENTER":272.6652,"MEAN_ANOMALY":58.8533,"EPHEMERIS_TYPE":0,"CLASSIFICATION_TYPE":"U","NORAD_CAT_ID":67832,"ELEMENT_SET_NO":999,"REV_AT_EPOCH":587,"BSTAR":-0.007391248,"MEAN_MOTION_DOT":-0.01232229,"MEAN_MOTION_DDOT":0},{"OBJECT_NAME":"STARLINK-36659","OBJECT_ID":"2026-033N","EPOCH":"2026-03-17T06:00:02.000160","MEAN_MOTION":15.62377284,"ECCENTRICITY":0.00015977,"INCLINATION":42.9998,"RA_OF_ASC_NODE":225.4866,"ARG_OF_PERICENTER":276.1452,"MEAN_ANOMALY":209.4731,"EPHEMERIS_TYPE":0,"CLASSIFICATION_TYPE":"U","NORAD_CAT_ID":67833,"ELEMENT_SET_NO":999,"REV_AT_EPOCH":587,"BSTAR":-0.023513944,"MEAN_MOTION_DOT":-0.01895525,"MEAN_MOTION_DDOT":0},{"OBJECT_NAME":"STARLINK-36655","OBJECT_ID":"2026-033P","EPOCH":"2026-03-17T06:00:02.000160","MEAN_MOTION":15.5691934,"ECCENTRICITY":0.00018329,"INCLINATION":42.9999,"RA_OF_ASC_NODE":225.7359,"ARG_OF_PERICENTER":269.5957,"MEAN_ANOMALY":115.4536,"EPHEMERIS_TYPE":0,"CLASSIFICATION_TYPE":"U","NORAD_CAT_ID":67834,"ELEMENT_SET_NO":999,"REV_AT_EPOCH":587,"BSTAR":-0.028709623,"MEAN_MOTION_DOT":-0.01877271,"MEAN_MOTION_DDOT":0},{"OBJECT_NAME":"STARLINK-36657","OBJECT_ID":"2026-033Q","EPOCH":"2026-03-17T06:00:02.000160","MEAN_MOTION":15.6103108,"ECCENTRICITY":0.00017279,"INCLINATION":42.9994,"RA_OF_ASC_NODE":225.5228,"ARG_OF_PERICENTER":275.1323,"MEAN_ANOMALY":195.5289,"EPHEMERIS_TYPE":0,"CLASSIFICATION_TYPE":"U","NORAD_CAT_ID":67835,"ELEMENT_SET_NO":999,"REV_AT_EPOCH":587,"BSTAR":-0.024726665,"MEAN_MOTION_DOT":-0.01891353,"MEAN_MOTION_DDOT":0},{"OBJECT_NAME":"STARLINK-36650","OBJECT_ID":"2026-033R","EPOCH":"2026-03-17T06:00:02.000160","MEAN_MOTION":15.52707084,"ECCENTRICITY":0.00015672,"INCLINATION":43.0001,"RA_OF_ASC_NODE":225.9664,"ARG_OF_PERICENTER":264.1783,"MEAN_ANOMALY":27.5886,"EPHEMERIS_TYPE":0,"CLASSIFICATION_TYPE":"U","NORAD_CAT_ID":67836,"ELEMENT_SET_NO":999,"REV_AT_EPOCH":587,"BSTAR":-0.037074184,"MEAN_MOTION_DOT":-0.0208788,"MEAN_MOTION_DDOT":0},{"OBJECT_NAME":"STARLINK-36649","OBJECT_ID":"2026-033S","EPOCH":"2026-03-17T06:00:02.000160","MEAN_MOTION":15.56500003,"ECCENTRICITY":0.00016564,"INCLINATION":42.9992,"RA_OF_ASC_NODE":225.7257,"ARG_OF_PERICENTER":268.7515,"MEAN_ANOMALY":119.8452,"EPHEMERIS_TYPE":0,"CLASSIFICATION_TYPE":"U","NORAD_CAT_ID":67837,"ELEMENT_SET_NO":999,"REV_AT_EPOCH":587,"BSTAR":-0.029275924,"MEAN_MOTION_DOT":-0.0188334,"MEAN_MOTION_DDOT":0},{"OBJECT_NAME":"STARLINK-36654","OBJECT_ID":"2026-033T","EPOCH":"2026-03-17T06:00:02.000160","MEAN_MOTION":15.54480447,"ECCENTRICITY":0.00017222,"INCLINATION":42.9998,"RA_OF_ASC_NODE":225.8287,"ARG_OF_PERICENTER":265.9879,"MEAN_ANOMALY":80.9626,"EPHEMERIS_TYPE":0,"CLASSIFICATION_TYPE":"U","NORAD_CAT_ID":67838,"ELEMENT_SET_NO":999,"REV_AT_EPOCH":587,"BSTAR":-0.031322423,"MEAN_MOTION_DOT":-0.01870366,"MEAN_MOTION_DDOT":0},{"OBJECT_NAME":"STARLINK-36652","OBJECT_ID":"2026-033U","EPOCH":"2026-03-17T06:00:02.000160","MEAN_MOTION":15.52966795,"ECCENTRICITY":0.00019795,"INCLINATION":43.0002,"RA_OF_ASC_NODE":225.9221,"ARG_OF_PERICENTER":270.8028,"MEAN_ANOMALY":38.6998,"EPHEMERIS_TYPE":0,"CLASSIFICATION_TYPE":"U","NORAD_CAT_ID":67839,"ELEMENT_SET_NO":999,"REV_AT_EPOCH":587,"BSTAR":-0.037824719,"MEAN_MOTION_DOT":-0.02143653,"MEAN_MOTION_DDOT":0},{"OBJECT_NAME":"STARLINK-36651","OBJECT_ID":"2026-033V","EPOCH":"2026-03-17T06:00:02.000160","MEAN_MOTION":15.54302172,"ECCENTRICITY":0.00017946,"INCLINATION":42.9995,"RA_OF_ASC_NODE":225.8175,"ARG_OF_PERICENTER":264.2772,"MEAN_ANOMALY":86.9791,"EPHEMERIS_TYPE":0,"CLASSIFICATION_TYPE":"U","NORAD_CAT_ID":67840,"ELEMENT_SET_NO":999,"REV_AT_EPOCH":587,"BSTAR":-0.031545758,"MEAN_MOTION_DOT":-0.01871244,"MEAN_MOTION_DDOT":0},{"OBJECT_NAME":"STARLINK-36656","OBJECT_ID":"2026-033W","EPOCH":"2026-03-17T06:00:02.000160","MEAN_MOTION":15.55408581,"ECCENTRICITY":0.00016668,"INCLINATION":42.9994,"RA_OF_ASC_NODE":225.7434,"ARG_OF_PERICENTER":265.152,"MEAN_ANOMALY":116.0858,"EPHEMERIS_TYPE":0,"CLASSIFICATION_TYPE":"U","NORAD_CAT_ID":67841,"ELEMENT_SET_NO":999,"REV_AT_EPOCH":587,"BSTAR":-0.030433159,"MEAN_MOTION_DOT":-0.01879791,"MEAN_MOTION_DDOT":0},{"OBJECT_NAME":"STARLINK-36653","OBJECT_ID":"2026-033X","EPOCH":"2026-03-17T06:00:02.000160","MEAN_MOTION":15.54395845,"ECCENTRICITY":0.00016047,"INCLINATION":42.9996,"RA_OF_ASC_NODE":225.7908,"ARG_OF_PERICENTER":268.3425,"MEAN_ANOMALY":93.6746,"EPHEMERIS_TYPE":0,"CLASSIFICATION_TYPE":"U","NORAD_CAT_ID":67842,"ELEMENT_SET_NO":999,"REV_AT_EPOCH":587,"BSTAR":-0.031470051,"MEAN_MOTION_DOT":-0.01872884,"MEAN_MOTION_DDOT":0},{"OBJECT_NAME":"STARLINK-36589","OBJECT_ID":"2026-033Y","EPOCH":"2026-03-17T06:00:02.000160","MEAN_MOTION":15.55443145,"ECCENTRICITY":0.00017449,"INCLINATION":42.9992,"RA_OF_ASC_NODE":225.7196,"ARG_OF_PERICENTER":263.9079,"MEAN_ANOMALY":126.7879,"EPHEMERIS_TYPE":0,"CLASSIFICATION_TYPE":"U","NORAD_CAT_ID":67843,"ELEMENT_SET_NO":999,"REV_AT_EPOCH":587,"BSTAR":-0.030324279,"MEAN_MOTION_DOT":-0.01876038,"MEAN_MOTION_DDOT":0},{"OBJECT_NAME":"STARLINK-36598","OBJECT_ID":"2026-033Z","EPOCH":"2026-03-17T06:00:02.000160","MEAN_MOTION":15.52533918,"ECCENTRICITY":0.00017116,"INCLINATION":42.9999,"RA_OF_ASC_NODE":225.9026,"ARG_OF_PERICENTER":270.2749,"MEAN_ANOMALY":46.5683,"EPHEMERIS_TYPE":0,"CLASSIFICATION_TYPE":"U","NORAD_CAT_ID":67844,"ELEMENT_SET_NO":999,"REV_AT_EPOCH":587,"BSTAR":-0.04378133,"MEAN_MOTION_DOT":-0.02450867,"MEAN_MOTION_DDOT":0}]
